      2.10          N: GNSS NAV DATA                        RINEX VERSION / TYPE
fic2rin                                 04/18/2019 00:19:35 PGM / RUN BY / DATE
                                                            END OF HEADER
23 19  4 17  4  0  0.0-1.899027265608e-04 1.477928890381e-12 0.000000000000e+00
    2.100000000000e+01 2.950000000000e+01 4.572333313178e-09-1.579991087302e+00
    1.354143023491e-06 1.308391452767e-02 1.265294849873e-05 5.153608623505e+03
    2.736000000000e+05 2.793967723846e-07-1.579333662158e-01-8.940696716309e-08
    9.438105943225e-01 1.237187500000e+02-2.273558951176e+00-7.882828351442e-09
    7.036007363663e-11 1.000000000000e+00 2.049000000000e+03 0.000000000000e+00
    2.400000000000e+00 0.000000000000e+00-2.048909664154e-08 2.100000000000e+01
    2.664000000000e+05 4.000000000000e+00
16 19  4 17  4  0  0.0-3.323471173644e-05-2.842170943040e-12 0.000000000000e+00
    9.300000000000e+01-7.646875000000e+01 4.064097857417e-09 6.829114916733e-01
   -3.864988684654e-06 1.083283149637e-02 7.802620530128e-06 5.153555154800e+03
    2.736000000000e+05-1.303851604462e-07 2.041422722685e+00 1.825392246246e-07
    9.833744281892e-01 2.425000000000e+02 5.679021270831e-01-8.017833974968e-09
   -5.200216609895e-10 1.000000000000e+00 2.049000000000e+03 0.000000000000e+00
    2.400000000000e+00 0.000000000000e+00-1.071020960808e-08 9.300000000000e+01
    2.664000000000e+05 4.000000000000e+00
27 19  4 17  4  0  0.0-1.102322712541e-04-8.753886504564e-12 0.000000000000e+00
    4.800000000000e+01 2.425000000000e+01 3.901233930624e-09-1.813051473328e-01
    1.396983861923e-06 7.012332091108e-03 1.245550811291e-05 5.153644144058e+03
    2.736000000000e+05 7.264316082001e-08 2.999810491062e+00 5.215406417847e-08
    9.788571288027e-01 1.509687500000e+02 4.640293448676e-01-7.797110495235e-09
    2.017941198208e-10 1.000000000000e+00 2.049000000000e+03 0.000000000000e+00
    2.400000000000e+00 0.000000000000e+00 1.396983861923e-09 4.800000000000e+01
    2.664000000000e+05 4.000000000000e+00
24 19  4 17  4  0  0.0-6.488943472505e-05-5.684341886081e-13 0.000000000000e+00
    6.500000000000e+01 7.268750000000e+01 5.281291415557e-09-2.073023641824e+00
    3.775581717491e-06 8.265814394690e-03 4.537403583527e-06 5.153715553284e+03
    2.736000000000e+05-1.862645149231e-08 8.573803833230e-01-1.173466444016e-07
    9.390110921868e-01 2.813437500000e+02 6.055771362156e-01-8.534998374084e-09
    4.539474801632e-10 1.000000000000e+00 2.049000000000e+03 0.000000000000e+00
    2.400000000000e+00 0.000000000000e+00 2.793967723846e-09 6.500000000000e+01
    2.664000000000e+05 4.000000000000e+00
14 19  4 17  4  0  0.0-8.418690413237e-05 1.477928890381e-12 0.000000000000e+00
    7.000000000000e+01 2.596875000000e+01 4.375539401636e-09-4.155522495792e-01
    1.421198248863e-06 1.044582924806e-02 1.260265707970e-05 5.153695020676e+03
    2.736000000000e+05-4.284083843231e-08-6.078054208497e-02 9.872019290924e-08
    9.610689139322e-01 1.388750000000e+02-1.944213902439e+00-8.096765834225e-09
    1.314340461842e-10 1.000000000000e+00 2.049000000000e+03 0.000000000000e+00
    2.400000000000e+00 0.000000000000e+00-9.778887033463e-09 7.000000000000e+01
    2.664000000000e+05 4.000000000000e+00
13 19  4 17  4  0  0.0-6.748223677278e-05 1.591615728103e-12 0.000000000000e+00
    5.300000000000e+01 4.440625000000e+01 4.106956785521e-09-1.224572781720e+00
    2.186745405197e-06 3.599762800150e-03 1.351535320282e-05 5.153671546936e+03
    2.736000000000e+05 1.862645149231e-08-1.668268475221e-02 1.490116119385e-07
    9.685072671980e-01 1.213750000000e+02 1.325889843125e+00-7.855327205909e-09
    1.867934949846e-10 1.000000000000e+00 2.049000000000e+03 0.000000000000e+00
    2.400000000000e+00 0.000000000000e+00-1.117587089539e-08 5.300000000000e+01
    2.664000000000e+05 4.000000000000e+00
11 19  4 17  4  0  0.0-6.249989382923e-04 7.275957614183e-12 0.000000000000e+00
    5.600000000000e+01 9.862500000000e+01 5.751668151494e-09-3.054236089215e+00
    4.999339580536e-06 1.654000021517e-02 7.128342986107e-06 5.153699781418e+03
    2.736000000000e+05 2.011656761169e-07-2.676457301693e+00 2.440065145493e-07
    9.092254071506e-01 2.093125000000e+02 1.877948501579e+00-8.536427005021e-09
    5.468084910542e-10 1.000000000000e+00 2.049000000000e+03 0.000000000000e+00
    2.400000000000e+00 0.000000000000e+00-1.257285475731e-08 5.600000000000e+01
    2.664000000000e+05 4.000000000000e+00
17 19  4 17  4  0  0.0 4.025315865874e-05 5.911715561524e-12 0.000000000000e+00
    5.700000000000e+01 4.318750000000e+01 3.859803633457e-09-2.419867786006e-01
    2.106651663780e-06 1.285320275929e-02 1.288577914238e-05 5.153732965469e+03
    2.736000000000e+05-1.825392246246e-07 3.055698027140e+00 1.434236764908e-07
    9.843755279005e-01 1.502500000000e+02-1.713320601332e+00-7.882828351442e-09
    3.235849071817e-10 1.000000000000e+00 2.049000000000e+03 0.000000000000e+00
    2.400000000000e+00 0.000000000000e+00-1.117587089539e-08 5.700000000000e+01
    2.664000000000e+05 4.000000000000e+00
12 19  4 17  4  0  0.0 2.505909651518e-04-3.410605131648e-12 0.000000000000e+00
    6.800000000000e+01-8.303125000000e+01 4.026953453061e-09 2.571117029779e+00
   -4.308298230171e-06 7.654224522412e-03 8.231028914452e-06 5.153662025452e+03
    2.736000000000e+05 9.872019290924e-08 2.022504270472e+00-9.499490261078e-08
    9.830071099404e-01 2.309687500000e+02 1.065669459856e+00-7.843898158414e-09
   -5.235932383315e-10 1.000000000000e+00 2.049000000000e+03 0.000000000000e+00
    2.400000000000e+00 0.000000000000e+00-1.210719347000e-08 6.800000000000e+01
    2.664000000000e+05 4.000000000000e+00
28 19  4 17  4  0  0.0 7.674894295633e-04 2.273736754432e-13 0.000000000000e+00
    4.900000000000e+01-6.450000000000e+01 4.217318525387e-09 6.505244413198e-01
   -3.512948751450e-06 1.907545351423e-02 8.322298526764e-06 5.153699195862e+03
    2.736000000000e+05-2.160668373108e-07 2.045407107348e+00-1.210719347000e-07
    9.823145074679e-01 2.338750000000e+02-1.469447379627e+00-8.309631843806e-09
   -5.250218692682e-10 1.000000000000e+00 2.049000000000e+03 0.000000000000e+00
    2.400000000000e+00 0.000000000000e+00-1.117587089539e-08 4.900000000000e+01
    2.664000000000e+05 4.000000000000e+00
25 19  4 17  4  0  0.0-7.464634254575e-04-4.320099833421e-12 0.000000000000e+00
    1.040000000000e+02-8.303125000000e+01 4.375539401636e-09 2.238037661743e+00
   -4.330649971962e-06 8.438278804533e-03 7.247552275658e-06 5.153725379944e+03
    2.736000000000e+05-2.235174179077e-08 1.958659941980e+00-1.788139343262e-07
    9.704263304490e-01 2.449687500000e+02 8.859397655759e-01-8.128910030303e-09
   -4.968064082668e-10 1.000000000000e+00 2.049000000000e+03 0.000000000000e+00
    3.400000000000e+00 0.000000000000e+00 6.053596735001e-09 1.040000000000e+02
    2.664000000000e+05 4.000000000000e+00
30 19  4 17  4  0  0.0-8.792523294687e-05-6.934897101019e-12 0.000000000000e+00
    9.300000000000e+01 5.765625000000e+01 5.342008230371e-09-2.943229082699e+00
    2.991408109665e-06 3.877544309944e-03 3.861263394356e-06 5.153596771240e+03
    2.736000000000e+05-7.450580596924e-09 9.514417923754e-01-3.352761268616e-08
    9.412535963847e-01 2.957812500000e+02-2.999620041072e+00-8.643217167545e-09
    2.807259790781e-10 1.000000000000e+00 2.049000000000e+03 0.000000000000e+00
    2.400000000000e+00 0.000000000000e+00 3.725290298462e-09 9.300000000000e+01
    2.664000000000e+05 4.000000000000e+00
32 19  4 17  4  0  0.0-1.290543004870e-04 1.762145984685e-11 0.000000000000e+00
    4.900000000000e+01 1.031250000000e+01 4.397683181156e-09 4.677718301743e-01
    6.537884473801e-07 2.907756483182e-03 1.280941069126e-05 5.153584556580e+03
    2.736000000000e+05 3.166496753693e-08-1.467036427727e-01 3.725290298462e-08
    9.572737767409e-01 1.306250000000e+02-2.534121850381e+00-7.947831059065e-09
    2.785830326729e-11 1.000000000000e+00 2.049000000000e+03 0.000000000000e+00
    2.400000000000e+00 0.000000000000e+00 4.656612873077e-10 4.900000000000e+01
    2.664000000000e+05 4.000000000000e+00
21 19  4 17  4  0  0.0-2.108588814735e-04 7.617018127348e-12 0.000000000000e+00
    9.900000000000e+01 7.081250000000e+01 5.188073246932e-09 2.121899462750e+00
    3.356486558914e-06 2.471620240249e-02 3.667548298836e-06 5.153753459930e+03
    2.736000000000e+05 2.887099981308e-07-2.291496623609e+00-1.639127731323e-07
    9.478484223085e-01 2.960312500000e+02-1.451503315705e+00-8.263915653829e-09
    3.178703834345e-10 1.000000000000e+00 2.049000000000e+03 0.000000000000e+00
    2.400000000000e+00 0.000000000000e+00-1.024454832077e-08 9.900000000000e+01
    2.664000000000e+05 4.000000000000e+00
19 19  4 17  4  0  0.0-3.297734074295e-04 4.433786671143e-12 0.000000000000e+00
    7.400000000000e+01 5.734375000000e+01 3.768371253503e-09 2.573215436546e+00
    2.844259142876e-06 9.512068703771e-03 1.290068030357e-05 5.153640367508e+03
    2.736000000000e+05 8.940696716309e-08 3.101999017156e+00-5.215406417847e-08
    9.821809649910e-01 1.412812500000e+02 1.376481053995e+00-7.513170096549e-09
    3.185846989029e-10 1.000000000000e+00 2.049000000000e+03 0.000000000000e+00
    2.400000000000e+00 0.000000000000e+00-1.536682248116e-08 7.400000000000e+01
    2.664000000000e+05 4.000000000000e+00
18 19  4 17  4  0  0.0 4.490371793509e-05 3.524291969370e-12 0.000000000000e+00
    1.020000000000e+02 6.143750000000e+01 5.106284125801e-09-2.594750649825e+00
    3.112480044365e-06 1.518468838185e-02 3.818422555923e-06 5.153709661484e+03
    2.736000000000e+05 2.607703208923e-07-2.282566643960e+00 1.043081283569e-07
    9.535226865501e-01 2.994687500000e+02 1.383110811477e+00-8.339990251213e-09
    5.243075537999e-10 1.000000000000e+00 2.049000000000e+03 0.000000000000e+00
    2.400000000000e+00 0.000000000000e+00-5.587935447693e-09 1.020000000000e+02
    2.664000000000e+05 4.000000000000e+00
